{
  "type": "FeatureCollection",
  "features": [
    {
      "type": "Feature",
      "properties": {
        "norad_id": 24946,
        "name": "IRIDIUM 33",
        "group": "iridium-33-debris",
        "lat": -36.560557805136696,
        "lon": 60.25379856999719,
        "alt_km": 787.1342792481682,
        "timestamp": "2025-12-25T07:41:10.107807+00:00",
        "meta_object_name": "IRIDIUM 33",
        "meta_object_id": "1997-051C",
        "meta_epoch": "2025-12-24T16:47:43.898496",
        "meta_mean_motion": 14.3504533,
        "meta_eccentricity": 0.00084437,
        "meta_inclination": 86.3857,
        "meta_ra_of_asc_node": 63.2009,
        "meta_arg_of_pericenter": 161.6757,
        "meta_mean_anomaly": 198.4746,
        "meta_ephemeris_type": 0,
        "meta_classification_type": "U",
        "meta_norad_cat_id": 24946,
        "meta_element_set_no": 999,
        "meta_rev_at_epoch": 48006,
        "meta_bstar": 0.00011017543,
        "meta_mean_motion_dot": 3.34e-06,
        "meta_mean_motion_ddot": 0,
        "tle_line1": "1 24946U 97051C   25358.69981364  .00000334  00000+0  11018-3 0  9999",
        "tle_line2": "2 24946  86.3857  63.2009 0008443 161.6757 198.4746 14.35045330480061"
      },
      "geometry": {
        "type": "Point",
        "coordinates": [
          60.25379856999719,
          -36.560557805136696
        ]
      }
    },
    {
      "type": "Feature",
      "properties": {
        "norad_id": 33773,
        "name": "IRIDIUM 33 DEB",
        "group": "iridium-33-debris",
        "lat": -67.23879963651893,
        "lon": 46.6276368386444,
        "alt_km": 764.4608832833046,
        "timestamp": "2025-12-25T07:41:10.107849+00:00",
        "meta_object_name": "IRIDIUM 33 DEB",
        "meta_object_id": "1997-051L",
        "meta_epoch": "2025-12-24T22:00:55.812960",
        "meta_mean_motion": 14.43281743,
        "meta_eccentricity": 0.0013264,
        "meta_inclination": 86.3998,
        "meta_ra_of_asc_node": 55.4287,
        "meta_arg_of_pericenter": 111.4398,
        "meta_mean_anomaly": 248.8219,
        "meta_ephemeris_type": 0,
        "meta_classification_type": "U",
        "meta_norad_cat_id": 33773,
        "meta_element_set_no": 999,
        "meta_rev_at_epoch": 88523,
        "meta_bstar": 0.00029378887,
        "meta_mean_motion_dot": 1.01e-05,
        "meta_mean_motion_ddot": 0,
        "tle_line1": "1 33773U 97051L   25358.91731265  .00001010  00000+0  29379-3 0  9996",
        "tle_line2": "2 33773  86.3998  55.4287 0013264 111.4398 248.8219 14.43281743885239"
      },
      "geometry": {
        "type": "Point",
        "coordinates": [
          46.6276368386444,
          -67.23879963651893
        ]
      }
    },
    {
      "type": "Feature",
      "properties": {
        "norad_id": 33775,
        "name": "IRIDIUM 33 DEB",
        "group": "iridium-33-debris",
        "lat": -64.6169829176721,
        "lon": 36.476794750372335,
        "alt_km": 771.7803247977863,
        "timestamp": "2025-12-25T07:41:10.107866+00:00",
        "meta_object_name": "IRIDIUM 33 DEB",
        "meta_object_id": "1997-051N",
        "meta_epoch": "2025-12-24T21:08:33.647136",
        "meta_mean_motion": 14.41493494,
        "meta_eccentricity": 0.00153013,
        "meta_inclination": 86.3624,
        "meta_ra_of_asc_node": 44.3695,
        "meta_arg_of_pericenter": 118.5758,
        "meta_mean_anomaly": 58.3115,
        "meta_ephemeris_type": 0,
        "meta_classification_type": "U",
        "meta_norad_cat_id": 33775,
        "meta_element_set_no": 999,
        "meta_rev_at_epoch": 88315,
        "meta_bstar": 0.00031635445,
        "meta_mean_motion_dot": 1.048e-05,
        "meta_mean_motion_ddot": 0,
        "tle_line1": "1 33775U 97051N   25358.88094499  .00001048  00000+0  31635-3 0  9994",
        "tle_line2": "2 33775  86.3624  44.3695 0015301 118.5758  58.3115 14.41493494883153"
      },
      "geometry": {
        "type": "Point",
        "coordinates": [
          36.476794750372335,
          -64.6169829176721
        ]
      }
    },
    {
      "type": "Feature",
      "properties": {
        "norad_id": 33776,
        "name": "IRIDIUM 33 DEB",
        "group": "iridium-33-debris",
        "lat": 18.24533036078869,
        "lon": 76.68077418265605,
        "alt_km": 772.1684841554588,
        "timestamp": "2025-12-25T07:41:10.107880+00:00",
        "meta_object_name": "IRIDIUM 33 DEB",
        "meta_object_id": "1997-051P",
        "meta_epoch": "2025-12-24T17:06:29.634336",
        "meta_mean_motion": 14.38254982,
        "meta_eccentricity": 0.00156803,
        "meta_inclination": 86.4031,
        "meta_ra_of_asc_node": 75.7477,
        "meta_arg_of_pericenter": 152.4095,
        "meta_mean_anomaly": 323.0984,
        "meta_ephemeris_type": 0,
        "meta_classification_type": "U",
        "meta_norad_cat_id": 33776,
        "meta_element_set_no": 999,
        "meta_rev_at_epoch": 88254,
        "meta_bstar": 0.00025627618,
        "meta_mean_motion_dot": 7.99e-06,
        "meta_mean_motion_ddot": 0,
        "tle_line1": "1 33776U 97051P   25358.71284299  .00000799  00000+0  25628-3 0  9993",
        "tle_line2": "2 33776  86.4031  75.7477 0015680 152.4095 323.0984 14.38254982882545"
      },
      "geometry": {
        "type": "Point",
        "coordinates": [
          76.68077418265605,
          18.24533036078869
        ]
      }
    },
    {
      "type": "Feature",
      "properties": {
        "norad_id": 33777,
        "name": "IRIDIUM 33 DEB",
        "group": "iridium-33-debris",
        "lat": -53.56084887440901,
        "lon": -145.34766753980486,
        "alt_km": 710.6419613099397,
        "timestamp": "2025-12-25T07:41:10.107893+00:00",
        "meta_object_name": "IRIDIUM 33 DEB",
        "meta_object_id": "1997-051Q",
        "meta_epoch": "2025-12-24T19:04:04.012896",
        "meta_mean_motion": 14.55693691,
        "meta_eccentricity": 0.0006279,
        "meta_inclination": 86.3772,
        "meta_ra_of_asc_node": 29.9584,
        "meta_arg_of_pericenter": 198.3661,
        "meta_mean_anomaly": 161.7321,
        "meta_ephemeris_type": 0,
        "meta_classification_type": "U",
        "meta_norad_cat_id": 33777,
        "meta_element_set_no": 999,
        "meta_rev_at_epoch": 88709,
        "meta_bstar": 0.00080567078,
        "meta_mean_motion_dot": 3.541e-05,
        "meta_mean_motion_ddot": 0,
        "tle_line1": "1 33777U 97051Q   25358.79449089  .00003541  00000+0  80567-3 0  9993",
        "tle_line2": "2 33777  86.3772  29.9584 0006279 198.3661 161.7321 14.55693691887099"
      },
      "geometry": {
        "type": "Point",
        "coordinates": [
          -145.34766753980486,
          -53.56084887440901
        ]
      }
    },
    {
      "type": "Feature",
      "properties": {
        "norad_id": 33850,
        "name": "IRIDIUM 33 DEB",
        "group": "iridium-33-debris",
        "lat": -53.11205786611255,
        "lon": 19.87813054624936,
        "alt_km": 767.8138395556052,
        "timestamp": "2025-12-25T07:41:10.107905+00:00",
        "meta_object_name": "IRIDIUM 33 DEB",
        "meta_object_id": "1997-051T",
        "meta_epoch": "2025-12-24T14:09:34.936416",
        "meta_mean_motion": 14.42175035,
        "meta_eccentricity": 0.00132396,
        "meta_inclination": 86.3408,
        "meta_ra_of_asc_node": 25.0836,
        "meta_arg_of_pericenter": 125.8132,
        "meta_mean_anomaly": 351.9866,
        "meta_ephemeris_type": 0,
        "meta_classification_type": "U",
        "meta_norad_cat_id": 33850,
        "meta_element_set_no": 999,
        "meta_rev_at_epoch": 88323,
        "meta_bstar": 0.00039597193,
        "meta_mean_motion_dot": 1.324e-05,
        "meta_mean_motion_ddot": 0,
        "tle_line1": "1 33850U 97051T   25358.58998769  .00001324  00000+0  39597-3 0  9990",
        "tle_line2": "2 33850  86.3408  25.0836 0013239 125.8132 351.9866 14.42175035883238"
      },
      "geometry": {
        "type": "Point",
        "coordinates": [
          19.87813054624936,
          -53.11205786611255
        ]
      }
    },
    {
      "type": "Feature",
      "properties": {
        "norad_id": 33853,
        "name": "IRIDIUM 33 DEB",
        "group": "iridium-33-debris",
        "lat": -1.8559591314329607,
        "lon": 164.4236979430236,
        "alt_km": 754.0544733513398,
        "timestamp": "2025-12-25T07:41:10.107918+00:00",
        "meta_object_name": "IRIDIUM 33 DEB",
        "meta_object_id": "1997-051W",
        "meta_epoch": "2025-12-24T22:19:16.042656",
        "meta_mean_motion": 13.99120379,
        "meta_eccentricity": 0.02077344,
        "meta_inclination": 86.0001,
        "meta_ra_of_asc_node": 344.4648,
        "meta_arg_of_pericenter": 198.227,
        "meta_mean_anomaly": 179.9108,
        "meta_ephemeris_type": 0,
        "meta_classification_type": "U",
        "meta_norad_cat_id": 33853,
        "meta_element_set_no": 999,
        "meta_rev_at_epoch": 85516,
        "meta_bstar": 0.0011909425,
        "meta_mean_motion_dot": 2.092e-05,
        "meta_mean_motion_ddot": 0,
        "tle_line1": "1 33853U 97051W   25358.93004679  .00002092  00000+0  11909-2 0  9999",
        "tle_line2": "2 33853  86.0001 344.4648 0207734 198.2270 179.9108 13.99120379855168"
      },
      "geometry": {
        "type": "Point",
        "coordinates": [
          164.4236979430236,
          -1.8559591314329607
        ]
      }
    }
  ]
}